{
    "links": {
        "self": "http://www.neowsapp.com/rest/v1/neo/3653911?api_key=iIulBulltgU6a56xZRHN4H3l9WmuAYTsLGpBGhQ2"
    },
    "id": "3653911",
    "neo_reference_id": "3653911",
    "name": "(2013 WB44)",
    "designation": "2013 WB44",
    "nasa_jpl_url": "http://ssd.jpl.nasa.gov/sbdb.cgi?sstr=3653911",
    "absolute_magnitude_h": 22.7,
    "estimated_diameter": {
        "kilometers": {
            "estimated_diameter_min": 0.0766575574,
            "estimated_diameter_max": 0.1714115092
        },
        "meters": {
            "estimated_diameter_min": 76.6575573531,
            "estimated_diameter_max": 171.4115092306
        },
        "miles": {
            "estimated_diameter_min": 0.0476327831,
            "estimated_diameter_max": 0.1065101409
        },
        "feet": {
            "estimated_diameter_min": 251.5011804664,
            "estimated_diameter_max": 562.3737359442
        }
    },
    "is_potentially_hazardous_asteroid": false,
    "close_approach_data": [
        {
            "close_approach_date": "2008-03-17",
            "close_approach_date_full": "2008-Mar-17 12:38",
            "epoch_date_close_approach": 1205757480000,
            "relative_velocity": {
                "kilometers_per_second": "3.2498221275",
                "kilometers_per_hour": "11699.3596590649",
                "miles_per_hour": "7269.5271170451"
            },
            "miss_distance": {
                "astronomical": "1.6451448323",
                "lunar": "639.9613397647",
                "kilometers": "246110162.753587201",
                "miles": "152925763.8731813338"
            },
            "orbiting_body": "Juptr"
        },
        {
            "close_approach_date": "2009-12-06",
            "close_approach_date_full": "2009-Dec-06 13:52",
            "epoch_date_close_approach": 1260107520000,
            "relative_velocity": {
                "kilometers_per_second": "8.5663655976",
                "kilometers_per_hour": "30838.9161513104",
                "miles_per_hour": "19162.1032052406"
            },
            "miss_distance": {
                "astronomical": "0.4534193416",
                "lunar": "176.3801238824",
                "kilometers": "67830567.720162392",
                "miles": "42147960.3544173296"
            },
            "orbiting_body": "Earth"
        },
        {
            "close_approach_date": "2013-12-12",
            "close_approach_date_full": "2013-Dec-12 08:27",
            "epoch_date_close_approach": 1386836820000,
            "relative_velocity": {
                "kilometers_per_second": "6.8602625794",
                "kilometers_per_hour": "24696.9452857304",
                "miles_per_hour": "15345.7213637918"
            },
            "miss_distance": {
                "astronomical": "0.2112305074",
                "lunar": "82.1686673786",
                "kilometers": "31599633.986059238",
                "miles": "19635102.0671559644"
            },
            "orbiting_body": "Earth"
        },
        {
            "close_approach_date": "2017-12-15",
            "close_approach_date_full": "2017-Dec-15 04:15",
            "epoch_date_close_approach": 1513311300000,
            "relative_velocity": {
                "kilometers_per_second": "9.069010526",
                "kilometers_per_hour": "32648.4378936147",
                "miles_per_hour": "20286.4696456185"
            },
            "miss_distance": {
                "astronomical": "0.4233324336",
                "lunar": "164.6763166704",
                "kilometers": "63329630.368476432",
                "miles": "39351207.5712294816"
            },
            "orbiting_body": "Earth"
        },
        {
            "close_approach_date": "2020-01-17",
            "close_approach_date_full": "2020-Jan-17 04:44",
            "epoch_date_close_approach": 1579236240000,
            "relative_velocity": {
                "kilometers_per_second": "3.1612450627",
                "kilometers_per_hour": "11380.4822258927",
                "miles_per_hour": "7071.3890808609"
            },
            "miss_distance": {
                "astronomical": "1.6108670153",
                "lunar": "626.6272689517",
                "kilometers": "240982274.342137411",
                "miles": "149739441.7660258318"
            },
            "orbiting_body": "Juptr"
        }
    ],
    "orbital_data": {
        "orbit_id": "13",
        "orbit_determination_date": "2017-04-06 08:43:33",
        "first_observation_date": "2013-11-28",
        "last_observation_date": "2014-01-09",
        "data_arc_in_days": 42,
        "observations_used": 30,
        "orbit_uncertainty": "5",
        "minimum_orbit_intersection": ".224918",
        "jupiter_tisserand_invariant": "3.245",
        "epoch_osculation": "2459000.5",
        "eccentricity": ".5172761476736625",
        "semi_major_axis": "2.503893079629322",
        "inclination": "10.69032061390372",
        "ascending_node_longitude": "78.28744689314783",
        "orbital_period": "1447.178482764895",
        "perihelion_distance": "1.208688913211923",
        "perihelion_argument": "4.340192037294851",
        "aphelion_distance": "3.799097246046721",
        "perihelion_time": "2459529.622318085545",
        "mean_anomaly": "228.375575798454",
        "mean_motion": ".248759917513564",
        "equinox": "J2000",
        "orbit_class": {
            "orbit_class_type": "AMO",
            "orbit_class_description": "Near-Earth asteroid orbits similar to that of 1221 Amor",
            "orbit_class_range": "1.017 AU < q (perihelion) < 1.3 AU"
        }
    },
    "is_sentry_object": false
}